[{"OBJECT_NAME":"SL-14 R/B","OBJECT_ID":"1986-006B","EPOCH":"2026-03-08T00:57:19.075104","MEAN_MOTION":14.86812792,"ECCENTRICITY":0.0075077,"INCLINATION":82.5234,"RA_OF_ASC_NODE":261.2905,"ARG_OF_PERICENTER":278.3878,"MEAN_ANOMALY":80.8832,"EPHEMERIS_TYPE":0,"CLASSIFICATION_TYPE":"U","NORAD_CAT_ID":16496,"ELEMENT_SET_NO":999,"REV_AT_EPOCH":14896,"BSTAR":9.2628e-5,"MEAN_MOTION_DOT":8.94e-6,"MEAN_MOTION_DDOT":0},{"OBJECT_NAME":"COSMOS 1743","OBJECT_ID":"1986-034A","EPOCH":"2026-03-08T02:25:34.232160","MEAN_MOTION":15.58430788,"ECCENTRICITY":0.0001671,"INCLINATION":82.5293,"RA_OF_ASC_NODE":75.4979,"ARG_OF_PERICENTER":309.3376,"MEAN_ANOMALY":50.7731,"EPHEMERIS_TYPE":0,"CLASSIFICATION_TYPE":"U","NORAD_CAT_ID":16719,"ELEMENT_SET_NO":999,"REV_AT_EPOCH":18000,"BSTAR":0.00061095,"MEAN_MOTION_DOT":0.00046713,"MEAN_MOTION_DDOT":0},{"OBJECT_NAME":"SL-14 R/B","OBJECT_ID":"1986-046B","EPOCH":"2026-03-08T02:57:46.071360","MEAN_MOTION":14.8558886,"ECCENTRICITY":0.0021866,"INCLINATION":82.4782,"RA_OF_ASC_NODE":81.662,"ARG_OF_PERICENTER":230.7923,"MEAN_ANOMALY":129.1353,"EPHEMERIS_TYPE":0,"CLASSIFICATION_TYPE":"U","NORAD_CAT_ID":16792,"ELEMENT_SET_NO":999,"REV_AT_EPOCH":12617,"BSTAR":7.1959e-5,"MEAN_MOTION_DOT":6.49e-6,"MEAN_MOTION_DDOT":0},{"OBJECT_NAME":"SL-14 R/B","OBJECT_ID":"1986-055B","EPOCH":"2026-03-08T02:52:02.614944","MEAN_MOTION":14.85641381,"ECCENTRICITY":0.0018309,"INCLINATION":82.5204,"RA_OF_ASC_NODE":128.1501,"ARG_OF_PERICENTER":341.9469,"MEAN_ANOMALY":81.4658,"EPHEMERIS_TYPE":0,"CLASSIFICATION_TYPE":"U","NORAD_CAT_ID":16882,"ELEMENT_SET_NO":999,"REV_AT_EPOCH":11913,"BSTAR":6.9185e-5,"MEAN_MOTION_DOT":6.25e-6,"MEAN_MOTION_DDOT":0},{"OBJECT_NAME":"AJISAI (EGS)","OBJECT_ID":"1986-061A","EPOCH":"2026-03-08T02:28:59.449440","MEAN_MOTION":12.44515683,"ECCENTRICITY":0.0011262,"INCLINATION":50.008,"RA_OF_ASC_NODE":98.2256,"ARG_OF_PERICENTER":282.9167,"MEAN_ANOMALY":120.0189,"EPHEMERIS_TYPE":0,"CLASSIFICATION_TYPE":"U","NORAD_CAT_ID":16908,"ELEMENT_SET_NO":999,"REV_AT_EPOCH":46780,"BSTAR":5.2532e-5,"MEAN_MOTION_DOT":-9.0e-7,"MEAN_MOTION_DDOT":0},{"OBJECT_NAME":"SL-14 R/B","OBJECT_ID":"1987-024B","EPOCH":"2026-03-08T03:46:41.331648","MEAN_MOTION":14.86130589,"ECCENTRICITY":0.0016686,"INCLINATION":82.5249,"RA_OF_ASC_NODE":94.2044,"ARG_OF_PERICENTER":265.5236,"MEAN_ANOMALY":94.4074,"EPHEMERIS_TYPE":0,"CLASSIFICATION_TYPE":"U","NORAD_CAT_ID":17567,"ELEMENT_SET_NO":999,"REV_AT_EPOCH":8790,"BSTAR":6.7737e-5,"MEAN_MOTION_DOT":6.19e-6,"MEAN_MOTION_DDOT":0},{"OBJECT_NAME":"COSMOS 1833","OBJECT_ID":"1987-027A","EPOCH":"2026-03-08T03:52:18.525792","MEAN_MOTION":14.13055218,"ECCENTRICITY":0.0024344,"INCLINATION":70.9228,"RA_OF_ASC_NODE":329.2309,"ARG_OF_PERICENTER":216.6739,"MEAN_ANOMALY":143.2717,"EPHEMERIS_TYPE":0,"CLASSIFICATION_TYPE":"U","NORAD_CAT_ID":17589,"ELEMENT_SET_NO":999,"REV_AT_EPOCH":1010,"BSTAR":-5.6195e-5,"MEAN_MOTION_DOT":-1.53e-6,"MEAN_MOTION_DDOT":0},{"OBJECT_NAME":"SL-16 R/B","OBJECT_ID":"1987-027B","EPOCH":"2026-03-07T23:57:29.499840","MEAN_MOTION":14.1716582,"ECCENTRICITY":0.000353,"INCLINATION":71.0011,"RA_OF_ASC_NODE":280.0598,"ARG_OF_PERICENTER":146.3606,"MEAN_ANOMALY":213.7743,"EPHEMERIS_TYPE":0,"CLASSIFICATION_TYPE":"U","NORAD_CAT_ID":17590,"ELEMENT_SET_NO":999,"REV_AT_EPOCH":1510,"BSTAR":2.1012e-5,"MEAN_MOTION_DOT":-6.0e-8,"MEAN_MOTION_DDOT":0},{"OBJECT_NAME":"SL-14 R/B","OBJECT_ID":"1987-038B","EPOCH":"2026-03-08T03:38:19.008096","MEAN_MOTION":14.85367987,"ECCENTRICITY":0.0019546,"INCLINATION":82.5003,"RA_OF_ASC_NODE":298.257,"ARG_OF_PERICENTER":165.41,"MEAN_ANOMALY":194.7685,"EPHEMERIS_TYPE":0,"CLASSIFICATION_TYPE":"U","NORAD_CAT_ID":17912,"ELEMENT_SET_NO":999,"REV_AT_EPOCH":7900,"BSTAR":6.4695e-5,"MEAN_MOTION_DOT":5.83e-6,"MEAN_MOTION_DDOT":0},{"OBJECT_NAME":"COSMOS 1844","OBJECT_ID":"1987-041A","EPOCH":"2026-03-08T03:03:27.854208","MEAN_MOTION":14.14552624,"ECCENTRICITY":0.0029912,"INCLINATION":70.8998,"RA_OF_ASC_NODE":37.4699,"ARG_OF_PERICENTER":20.1068,"MEAN_ANOMALY":340.1224,"EPHEMERIS_TYPE":0,"CLASSIFICATION_TYPE":"U","NORAD_CAT_ID":17973,"ELEMENT_SET_NO":999,"REV_AT_EPOCH":336,"BSTAR":-4.3384e-5,"MEAN_MOTION_DOT":-1.32e-6,"MEAN_MOTION_DDOT":0},{"OBJECT_NAME":"SL-14 R/B","OBJECT_ID":"1987-055B","EPOCH":"2026-03-07T20:37:32.058048","MEAN_MOTION":14.85627282,"ECCENTRICITY":0.00213115,"INCLINATION":82.503,"RA_OF_ASC_NODE":350.7558,"ARG_OF_PERICENTER":23.7418,"MEAN_ANOMALY":336.4776,"EPHEMERIS_TYPE":0,"CLASSIFICATION_TYPE":"U","NORAD_CAT_ID":18153,"ELEMENT_SET_NO":999,"REV_AT_EPOCH":6966,"BSTAR":9.2000599e-5,"MEAN_MOTION_DOT":8.24e-6,"MEAN_MOTION_DDOT":0},{"OBJECT_NAME":"COSMOS 1867","OBJECT_ID":"1987-060A","EPOCH":"2026-03-08T01:03:25.060320","MEAN_MOTION":14.31502786,"ECCENTRICITY":0.0014467,"INCLINATION":65.0115,"RA_OF_ASC_NODE":311.3142,"ARG_OF_PERICENTER":278.5545,"MEAN_ANOMALY":81.39,"EPHEMERIS_TYPE":0,"CLASSIFICATION_TYPE":"U","NORAD_CAT_ID":18187,"ELEMENT_SET_NO":999,"REV_AT_EPOCH":1970,"BSTAR":3.625e-5,"MEAN_MOTION_DOT":-4.0e-8,"MEAN_MOTION_DDOT":0},{"OBJECT_NAME":"SL-14 R/B","OBJECT_ID":"1988-001B","EPOCH":"2026-03-07T18:53:35.359584","MEAN_MOTION":14.85525401,"ECCENTRICITY":0.00167404,"INCLINATION":82.515,"RA_OF_ASC_NODE":197.1489,"ARG_OF_PERICENTER":242.4821,"MEAN_ANOMALY":117.4694,"EPHEMERIS_TYPE":0,"CLASSIFICATION_TYPE":"U","NORAD_CAT_ID":18749,"ELEMENT_SET_NO":999,"REV_AT_EPOCH":4174,"BSTAR":9.4876568e-5,"MEAN_MOTION_DOT":8.45e-6,"MEAN_MOTION_DDOT":0},{"OBJECT_NAME":"COSMOS 1933","OBJECT_ID":"1988-020A","EPOCH":"2026-03-08T00:14:49.595136","MEAN_MOTION":15.17964581,"ECCENTRICITY":0.0003692,"INCLINATION":82.5096,"RA_OF_ASC_NODE":252.5735,"ARG_OF_PERICENTER":186.9615,"MEAN_ANOMALY":173.1569,"EPHEMERIS_TYPE":0,"CLASSIFICATION_TYPE":"U","NORAD_CAT_ID":18958,"ELEMENT_SET_NO":999,"REV_AT_EPOCH":4997,"BSTAR":0.0003016,"MEAN_MOTION_DOT":6.155e-5,"MEAN_MOTION_DDOT":0},{"OBJECT_NAME":"SL-3 R/B","OBJECT_ID":"1988-032B","EPOCH":"2026-03-08T02:04:47.411904","MEAN_MOTION":15.19888486,"ECCENTRICITY":0.0024321,"INCLINATION":97.5197,"RA_OF_ASC_NODE":50.343,"ARG_OF_PERICENTER":237.4031,"MEAN_ANOMALY":122.4856,"EPHEMERIS_TYPE":0,"CLASSIFICATION_TYPE":"U","NORAD_CAT_ID":19046,"ELEMENT_SET_NO":999,"REV_AT_EPOCH":5186,"BSTAR":0.00037993,"MEAN_MOTION_DOT":8.152e-5,"MEAN_MOTION_DDOT":0},{"OBJECT_NAME":"SL-16 R/B","OBJECT_ID":"1988-039B","EPOCH":"2026-03-08T03:33:31.053312","MEAN_MOTION":14.19615462,"ECCENTRICITY":0.0022697,"INCLINATION":71.0132,"RA_OF_ASC_NODE":71.807,"ARG_OF_PERICENTER":336.5845,"MEAN_ANOMALY":23.4244,"EPHEMERIS_TYPE":0,"CLASSIFICATION_TYPE":"U","NORAD_CAT_ID":19120,"ELEMENT_SET_NO":999,"REV_AT_EPOCH":95816,"BSTAR":-4.7846e-5,"MEAN_MOTION_DOT":-1.5e-6,"MEAN_MOTION_DDOT":0},{"OBJECT_NAME":"COSMOS 1953","OBJECT_ID":"1988-050A","EPOCH":"2026-03-07T17:27:04.641984","MEAN_MOTION":15.28485046,"ECCENTRICITY":0.00124493,"INCLINATION":82.5102,"RA_OF_ASC_NODE":160.2199,"ARG_OF_PERICENTER":128.9174,"MEAN_ANOMALY":231.3177,"EPHEMERIS_TYPE":0,"CLASSIFICATION_TYPE":"U","NORAD_CAT_ID":19210,"ELEMENT_SET_NO":999,"REV_AT_EPOCH":3748,"BSTAR":0.00044938728,"MEAN_MOTION_DOT":0.00012521,"MEAN_MOTION_DDOT":0}]
